{"type":"FeatureCollection","features":[{"type":"Feature","geometry":{"type":"Point","coordinates":[585849.7876244863,4234275.613171728]},"properties":{"type":"bench","angle":-99.61416305373713}},{"type":"Feature","geometry":{"type":"Point","coordinates":[585837.2712277856,4234201.722874463]},"properties":{"type":"bench","angle":-99.61416305373713}},{"type":"Feature","geometry":{"type":"Point","coordinates":[585816.8671928204,4234129.168676973]},"properties":{"type":"bench","angle":-99.61416305373713}},{"type":"Feature","geometry":{"type":"Point","coordinates":[585947.5353082488,4234104.604566799]},"properties":{"type":"bench","angle":-73.04468695116057}},{"type":"Feature","geometry":{"type":"Point","coordinates":[586063.6422941076,4233998.437513626]},"properties":{"type":"bench","angle":79.48737283001853}},{"type":"Feature","geometry":{"type":"Point","coordinates":[586073.3396606084,4234056.239670679]},"properties":{"type":"bench","angle":80.94211187173403}},{"type":"Feature","geometry":{"type":"Point","coordinates":[586093.5132284767,4234172.533045553]},"properties":{"type":"bench","angle":80.00004729090575}},{"type":"Feature","geometry":{"type":"Point","coordinates":[586116.3175828372,4234334.549131064]},"properties":{"type":"bench","angle":78.8358876820436}},{"type":"Feature","geometry":{"type":"Point","coordinates":[586185.7329143111,4233980.352632006]},"properties":{"type":"bench","angle":81.29777621013133}},{"type":"Feature","geometry":{"type":"Point","coordinates":[586221.9923617537,4234171.363053813]},"properties":{"type":"bench","angle":79.44519776563901}},{"type":"Feature","geometry":{"type":"Point","coordinates":[585792.1589661767,4234057.938886932]},"properties":{"type":"bench","angle":-14.495016805238413}},{"type":"Feature","geometry":{"type":"Point","coordinates":[586258.7736624696,4233985.686966725]},"properties":{"type":"bench","angle":170.18069936064404}},{"type":"Feature","geometry":{"type":"Point","coordinates":[586208.9245223645,4233994.53233492]},"properties":{"type":"bench","angle":169.38844649768154}},{"type":"Feature","geometry":{"type":"Point","coordinates":[586075.9645157852,4234026.15946925]},"properties":{"type":"bench","angle":168.25552352282267}},{"type":"Feature","geometry":{"type":"Point","coordinates":[586108.7891194503,4234145.181960346]},"properties":{"type":"bench","angle":172.08748315961105}},{"type":"Feature","geometry":{"type":"Point","coordinates":[586040.8643725755,4234148.138870183]},"properties":{"type":"bench","angle":170.08734660885233}},{"type":"Feature","geometry":{"type":"Point","coordinates":[585807.2534774253,4234196.601259301]},"properties":{"type":"bench","angle":170.8853928660264}},{"type":"Feature","geometry":{"type":"Point","coordinates":[585714.279519279,4234203.415282622]},"properties":{"type":"bench","angle":170.8853928660264}},{"type":"Feature","geometry":{"type":"Point","coordinates":[585776.2702468873,4234119.110077765]},"properties":{"type":"bench","angle":171.13683163016478}},{"type":"Feature","geometry":{"type":"Point","coordinates":[585655.1829804061,4234146.000797377]},"properties":{"type":"bench","angle":165.54469694670829}},{"type":"Feature","geometry":{"type":"Point","coordinates":[585926.6907777044,4234249.652606815]},"properties":{"type":"bench","angle":-9.795945914236562}},{"type":"Feature","geometry":{"type":"Point","coordinates":[586287.1577209361,4234254.502106721]},"properties":{"type":"bench","angle":-9.825535801330854}},{"type":"Feature","geometry":{"type":"Point","coordinates":[585895.0592568001,4234322.308001612]},"properties":{"type":"bench","angle":171.92431819042363}},{"type":"Feature","geometry":{"type":"Point","coordinates":[585806.2758674354,4234327.891645347]},"properties":{"type":"bench","angle":170.6152026899023}},{"type":"Feature","geometry":{"type":"Point","coordinates":[585784.8121722909,4234339.547615001]},"properties":{"type":"bench","angle":170.6152026899023}},{"type":"Feature","geometry":{"type":"Point","coordinates":[585737.9712416239,4234339.180783189]},"properties":{"type":"bench","angle":170.6152026899023}},{"type":"Feature","geometry":{"type":"Point","coordinates":[585834.3187759055,4234403.437863367]},"properties":{"type":"bench","angle":-6.8748180285957154}},{"type":"Feature","geometry":{"type":"Point","coordinates":[585897.1970059947,4234394.510851547]},"properties":{"type":"bench","angle":-10.184786636905095}},{"type":"Feature","geometry":{"type":"Point","coordinates":[585967.1622685269,4234390.069369195]},"properties":{"type":"bench","angle":-10.184786636905095}},{"type":"Feature","geometry":{"type":"Point","coordinates":[586104.2636190754,4234365.438522995]},"properties":{"type":"bench","angle":-10.184786636905095}},{"type":"Feature","geometry":{"type":"Point","coordinates":[586174.7206802545,4234354.945042001]},"properties":{"type":"bench","angle":-7.649261598017366}},{"type":"Feature","geometry":{"type":"Point","coordinates":[585969.1230336756,4234367.555648869]},"properties":{"type":"bench","angle":112.38013505060887}}]}