{
"type": "FeatureCollection",
"name": "adalar",
"crs": { "type": "name", "properties": { "name": "urn:ogc:def:crs:EPSG::5253" } },
"features": [
{ "type": "Feature", "properties": { "fid": 1, "uipfonksiyon": "YERLEŞİK KONUT ALANI", "nizam": "A", "yanbahce": "4", "taks": "0.4", "kaks": "1.6", "onbahce": "5.5", "katadedi": "4", "yencok": null, "emsal": null }, "geometry": { "type": "MultiPolygon", "coordinates": [ [ [ [ 585624.025928058545105, 4234068.736886392347515 ], [ 585621.93029174557887, 4234071.160080698318779 ], [ 585621.606076230993494, 4234073.719070923514664 ], [ 585629.410125972353853, 4234092.727058878168464 ], [ 585631.228822072502226, 4234094.544313884340227 ], [ 585633.710107268649153, 4234095.217585772275925 ], [ 585668.017235914128833, 4234081.264651642180979 ], [ 585797.952318693511188, 4234046.424078499898314 ], [ 585799.403221277403645, 4234045.262806130573153 ], [ 585800.589423596509732, 4234042.436325751245022 ], [ 585796.53968865040224, 4234018.170063857920468 ], [ 585794.916359285707586, 4234017.358399175107479 ], [ 585792.48705699655693, 4234017.460401715710759 ], [ 585725.897324857651256, 4234030.609075450338423 ], [ 585719.041206954861991, 4234038.27863106969744 ], [ 585715.326749297790229, 4234039.948333693668246 ], [ 585657.466177685069852, 4234054.474458895623684 ], [ 585624.025928058545105, 4234068.736886392347515 ] ] ] ] } },
{ "type": "Feature", "properties": { "fid": 2, "uipfonksiyon": "PARK", "nizam": null, "yanbahce": "3", "taks": null, "kaks": null, "onbahce": null, "katadedi": null, "yencok": null, "emsal": null }, "geometry": { "type": "MultiPolygon", "coordinates": [ [ [ [ 585622.496307729743421, 4234064.947807587683201 ], [ 585656.208318377262913, 4234050.613123347982764 ], [ 585716.907343114959076, 4234035.226286232471466 ], [ 585717.646742296521552, 4234033.049388602375984 ], [ 585716.209743086947128, 4234032.148011912591755 ], [ 585615.745830851141363, 4234051.784060126170516 ], [ 585613.103470436530188, 4234053.45211302023381 ], [ 585618.138978449977003, 4234064.110298536717892 ], [ 585619.899442056776024, 4234064.966342248022556 ], [ 585622.496307729743421, 4234064.947807587683201 ] ] ] ] } },
{ "type": "Feature", "properties": { "fid": 3, "uipfonksiyon": "PARK", "nizam": null, "yanbahce": "3", "taks": null, "kaks": null, "onbahce": null, "katadedi": null, "yencok": null, "emsal": null }, "geometry": { "type": "MultiPolygon", "coordinates": [ [ [ [ 585810.854042496182956, 4234033.176305092871189 ], [ 585814.606101853074506, 4234034.025972337462008 ], [ 585841.113378102658316, 4234029.48433643579483 ], [ 585843.044144270941615, 4234030.122080041095614 ], [ 585844.294549230951816, 4234031.725533295422792 ], [ 585856.909498313558288, 4234104.095266542397439 ], [ 585858.750530755962245, 4234106.6659294096753 ], [ 585863.329905080609024, 4234107.673656624741852 ], [ 585941.893640398979187, 4234095.953037032857537 ], [ 585944.934056972735561, 4234093.492830835282803 ], [ 585945.437476774211973, 4234090.24520065356046 ], [ 585928.815832943189889, 4233998.889375369995832 ], [ 585926.757757657906041, 4233995.039394987747073 ], [ 585922.759026667103171, 4233994.00949147157371 ], [ 585808.511742715258151, 4234014.585211510770023 ], [ 585806.905572509160265, 4234017.008177206851542 ], [ 585808.965467264410108, 4234030.553901703096926 ], [ 585810.854042496182956, 4234033.176305092871189 ] ] ] ] } },
{ "type": "Feature", "properties": { "fid": 4, "uipfonksiyon": "YERLEŞİK KONUT ALANI", "nizam": "A", "yanbahce": "4", "taks": "0.4", "kaks": "1.6", "onbahce": "5.5", "katadedi": "4", "yencok": null, "emsal": null }, "geometry": { "type": "MultiPolygon", "coordinates": [ [ [ [ 585812.84938025905285, 4234042.474054815247655 ], [ 585811.518226849730127, 4234046.040305949747562 ], [ 585822.15087949228473, 4234109.757043649442494 ], [ 585823.264767102315091, 4234111.330366587266326 ], [ 585825.506815285305493, 4234112.561317789368331 ], [ 585845.577881101868115, 4234110.015766504220665 ], [ 585848.905015938449651, 4234108.003861330449581 ], [ 585849.854177519096993, 4234104.878015118651092 ], [ 585838.159129880019464, 4234037.069196376018226 ], [ 585815.026584387524053, 4234041.100852834060788 ], [ 585812.84938025905285, 4234042.474054815247655 ] ] ] ] } },
{ "type": "Feature", "properties": { "fid": 5, "uipfonksiyon": "LİSE ALANI", "nizam": null, "yanbahce": "3", "taks": null, "kaks": null, "onbahce": null, "katadedi": null, "yencok": "12", "emsal": "1.6" }, "geometry": { "type": "MultiPolygon", "coordinates": [ [ [ [ 585936.265048021683469, 4233993.097959538921714 ], [ 585935.646433058660477, 4233997.896922045387328 ], [ 585952.777193506248295, 4234090.540934963151813 ], [ 585954.974371694028378, 4234092.837526283226907 ], [ 585958.930800121510401, 4234093.211321663111448 ], [ 586052.414431254263036, 4234077.854430485516787 ], [ 586065.861269556102343, 4234074.981052492745221 ], [ 586067.37220467091538, 4234072.913837686181068 ], [ 586067.661676529445685, 4234070.369725263677537 ], [ 586051.539207453955896, 4233974.205274942331016 ], [ 586049.026557882316411, 4233972.186196989379823 ], [ 586046.440673865494318, 4233971.962852042168379 ], [ 585939.495399611419998, 4233991.026180785149336 ], [ 585936.265048021683469, 4233993.097959538921714 ] ] ] ] } },
{ "type": "Feature", "properties": { "fid": 6, "uipfonksiyon": "YERLEŞİK KONUT ALANI", "nizam": "A", "yanbahce": "4", "taks": "0.4", "kaks": "1.6", "onbahce": "5.5", "katadedi": "4", "yencok": null, "emsal": null }, "geometry": { "type": "MultiPolygon", "coordinates": [ [ [ [ 586117.641704980051145, 4233959.493827315047383 ], [ 586068.148012635647319, 4233968.170628577470779 ], [ 586065.874321804847568, 4233968.670805108733475 ], [ 586063.897845330648124, 4233970.330449885688722 ], [ 586063.012312831124291, 4233972.754642995074391 ], [ 586070.494994400534779, 4234016.594548555091023 ], [ 586072.462839185958728, 4234019.231053705327213 ], [ 586074.972967242822051, 4234020.080160179175436 ], [ 586126.119584523607045, 4234009.563397479243577 ], [ 586186.389352058642544, 4233999.24372873455286 ], [ 586188.16684915299993, 4233997.329184588044882 ], [ 586188.736122286878526, 4233994.779497683979571 ], [ 586181.201299836393446, 4233951.192098502069712 ], [ 586179.28529250936117, 4233949.374852026812732 ], [ 586176.04720101505518, 4233948.860084278509021 ], [ 586117.641704980051145, 4233959.493827315047383 ] ] ] ] } },
{ "type": "Feature", "properties": { "fid": 7, "uipfonksiyon": "PAZAR ALANI", "nizam": null, "yanbahce": "3", "taks": null, "kaks": null, "onbahce": null, "katadedi": null, "yencok": null, "emsal": null }, "geometry": { "type": "MultiPolygon", "coordinates": [ [ [ [ 586073.370347642223351, 4234034.39476225618273 ], [ 586078.616956065990962, 4234068.957247241400182 ], [ 586079.982157943304628, 4234071.208026882261038 ], [ 586082.958351031527855, 4234072.559353675693274 ], [ 586195.545024835621007, 4234052.868150047957897 ], [ 586197.546824836172163, 4234051.164392071776092 ], [ 586198.407748411176726, 4234048.680684141814709 ], [ 586192.181191104697064, 4234013.813705327920616 ], [ 586190.65186524472665, 4234011.020324047654867 ], [ 586188.385438842349686, 4234009.821620393544436 ], [ 586123.64330597105436, 4234020.40749672614038 ], [ 586080.316630152403377, 4234029.347942163236439 ], [ 586076.114216518355533, 4234030.406791234388947 ], [ 586074.227497121319175, 4234032.046586000360548 ], [ 586073.370347642223351, 4234034.39476225618273 ] ] ] ] } },
{ "type": "Feature", "properties": { "fid": 8, "uipfonksiyon": "İLKOKUL ALANI", "nizam": null, "yanbahce": "3", "taks": null, "kaks": null, "onbahce": null, "katadedi": null, "yencok": "12", "emsal": "1.6" }, "geometry": { "type": "MultiPolygon", "coordinates": [ [ [ [ 585999.191304780659266, 4234096.908721891231835 ], [ 585997.175342032453045, 4234098.583326506428421 ], [ 585996.283377315616235, 4234101.047632770612836 ], [ 586005.211333033279516, 4234150.23165138065815 ], [ 586006.7702904996695, 4234153.026468835771084 ], [ 586010.355578343383968, 4234154.316251412034035 ], [ 586076.444299158174545, 4234142.439205124042928 ], [ 586079.302195382770151, 4234138.29857636615634 ], [ 586070.202605298371054, 4234088.892098569311202 ], [ 586066.777806492056698, 4234086.023011532612145 ], [ 585999.191304780659266, 4234096.908721891231835 ] ] ] ] } },
{ "type": "Feature", "properties": { "fid": 9, "uipfonksiyon": "CAMİ", "nizam": null, "yanbahce": "3", "taks": null, "kaks": null, "onbahce": null, "katadedi": null, "yencok": "12", "emsal": "1.6" }, "geometry": { "type": "MultiPolygon", "coordinates": [ [ [ [ 585957.353460288490169, 4234159.926886666566133 ], [ 585961.875996754737571, 4234161.664087428711355 ], [ 585996.523469889070839, 4234156.420175470411777 ], [ 585998.354858271661215, 4234152.638201819732785 ], [ 585989.008516935165972, 4234102.077579976059496 ], [ 585986.221344035933726, 4234099.524093092419207 ], [ 585975.806242319988087, 4234100.57316312007606 ], [ 585949.906888794270344, 4234105.006952590309083 ], [ 585947.541332991560921, 4234107.268899390473962 ], [ 585947.081686184974387, 4234110.509421342052519 ], [ 585957.353460288490169, 4234159.926886666566133 ] ] ] ] } },
{ "type": "Feature", "properties": { "fid": 10, "uipfonksiyon": "YERLEŞİK KONUT ALANI", "nizam": "A", "yanbahce": "4", "taks": "0.4", "kaks": "1.6", "onbahce": "5.5", "katadedi": "4", "yencok": null, "emsal": null }, "geometry": { "type": "MultiPolygon", "coordinates": [ [ [ [ 585636.831985701457597, 4234110.600311781279743 ], [ 585650.239650744595565, 4234142.690788768231869 ], [ 585652.126902113086544, 4234144.954585359431803 ], [ 585654.961419433122501, 4234145.762053190730512 ], [ 585678.030556223820895, 4234140.188479891046882 ], [ 585685.670160574140027, 4234138.101815949194133 ], [ 585705.529054972808808, 4234132.676828709430993 ], [ 585724.140240974025801, 4234127.587029222398996 ], [ 585732.808490334544331, 4234126.26847861520946 ], [ 585808.902122073923238, 4234115.167809027247131 ], [ 585810.949812817736529, 4234113.532985269092023 ], [ 585811.778806952061132, 4234111.740039540454745 ], [ 585811.848736850661226, 4234109.765958622097969 ], [ 585803.646939615951851, 4234060.316993768326938 ], [ 585801.629151173401624, 4234057.626964980736375 ], [ 585798.864391237962991, 4234056.448248258791864 ], [ 585720.714033903321251, 4234076.73686901666224 ], [ 585671.822185409604572, 4234090.719374631531537 ], [ 585641.140987746999599, 4234103.401058750227094 ], [ 585638.42486484372057, 4234104.688306878320873 ], [ 585636.617662669974379, 4234107.371978252194822 ], [ 585636.831985701457597, 4234110.600311781279743 ] ] ] ] } },
{ "type": "Feature", "properties": { "fid": 11, "uipfonksiyon": "YERLEŞİK KONUT ALANI", "nizam": "A", "yanbahce": "4", "taks": "0.4", "kaks": "1.6", "onbahce": "5.5", "katadedi": "4", "yencok": null, "emsal": null }, "geometry": { "type": "MultiPolygon", "coordinates": [ [ [ [ 586094.318420320283622, 4234139.266261065378785 ], [ 586138.766844712430611, 4234132.122957953251898 ], [ 586209.089746567304246, 4234120.64572209212929 ], [ 586211.135006478405558, 4234118.947749241255224 ], [ 586211.935477518942207, 4234115.102999811992049 ], [ 586202.262897382839583, 4234066.971647864207625 ], [ 586200.689526218920946, 4234064.225775619037449 ], [ 586198.419116643606685, 4234063.070027661509812 ], [ 586130.282350185792893, 4234074.749911343678832 ], [ 586087.075469193863682, 4234082.170092768967152 ], [ 586083.154160197707824, 4234083.512895840220153 ], [ 586081.663679604185745, 4234085.574395978823304 ], [ 586081.38044291024562, 4234088.10245693475008 ], [ 586089.983807852608152, 4234135.816382706165314 ], [ 586091.891315892338753, 4234138.391185901127756 ], [ 586094.318420320283622, 4234139.266261065378785 ] ] ] ] } },
{ "type": "Feature", "properties": { "fid": 12, "uipfonksiyon": "YERLEŞİK KONUT ALANI", "nizam": "A", "yanbahce": "4", "taks": "0.4", "kaks": "1.6", "onbahce": "5.5", "katadedi": "4", "yencok": null, "emsal": null }, "geometry": { "type": "MultiPolygon", "coordinates": [ [ [ [ 585936.710612131631933, 4234110.408729751594365 ], [ 585933.976170977461152, 4234107.892985330894589 ], [ 585929.873138493159786, 4234107.853068598546088 ], [ 585867.114100808743387, 4234117.613449485972524 ], [ 585837.273275130661204, 4234121.329740476794541 ], [ 585826.844499162747525, 4234123.54044924210757 ], [ 585824.96913031314034, 4234127.600534627214074 ], [ 585833.794930208357982, 4234180.325466400012374 ], [ 585835.460593417170458, 4234182.336327265016735 ], [ 585837.912819817662239, 4234183.233311672694981 ], [ 585942.922491532634012, 4234164.507889859378338 ], [ 585945.860072276787832, 4234162.002131681889296 ], [ 585946.045803841319866, 4234157.456276605837047 ], [ 585936.710612131631933, 4234110.408729751594365 ] ] ] ] } },
{ "type": "Feature", "properties": { "fid": 13, "uipfonksiyon": "YERLEŞİK KONUT ALANI", "nizam": "A", "yanbahce": "4", "taks": "0.4", "kaks": "1.6", "onbahce": "5.5", "katadedi": "4", "yencok": null, "emsal": null }, "geometry": { "type": "MultiPolygon", "coordinates": [ [ [ [ 585762.15283591253683, 4234132.129554324783385 ], [ 585727.368682968546636, 4234137.330005964264274 ], [ 585667.342050764826126, 4234152.953449789434671 ], [ 585659.131099243066274, 4234155.563356453552842 ], [ 585657.240592609974556, 4234159.011350778862834 ], [ 585672.109190580551513, 4234206.823280723765492 ], [ 585675.41386259754654, 4234209.139353008009493 ], [ 585748.226994490949437, 4234197.475614675320685 ], [ 585772.827509149909019, 4234193.53631657641381 ], [ 585821.223499019281007, 4234185.696380284614861 ], [ 585823.575709599885158, 4234181.935053456574678 ], [ 585814.957468806765974, 4234128.874344078823924 ], [ 585813.123591607320122, 4234126.282442027702928 ], [ 585809.454994422732852, 4234125.368292280472815 ], [ 585762.15283591253683, 4234132.129554324783385 ] ] ] ] } },
{ "type": "Feature", "properties": { "fid": 14, "uipfonksiyon": "YERLEŞİK KONUT ALANI", "nizam": "A", "yanbahce": "4", "taks": "0.4", "kaks": "1.6", "onbahce": "5.5", "katadedi": "4", "yencok": null, "emsal": null }, "geometry": { "type": "MultiPolygon", "coordinates": [ [ [ [ 585676.76248668867629, 4234220.599261173978448 ], [ 585680.057093199458905, 4234231.581282876431942 ], [ 585689.448428069474176, 4234277.829177238047123 ], [ 585757.433549063163809, 4234268.283684430643916 ], [ 585761.748024987522513, 4234267.534969340078533 ], [ 585786.347882923437282, 4234263.266018675640225 ], [ 585831.445963900187053, 4234255.656977099366486 ], [ 585834.384090968407691, 4234253.230246759951115 ], [ 585834.905641397228464, 4234250.072391282767057 ], [ 585826.562272453913465, 4234200.108604744076729 ], [ 585824.929774072836153, 4234198.108095870353281 ], [ 585821.864906906150281, 4234197.164294322021306 ], [ 585676.76248668867629, 4234220.599261173978448 ] ] ] ] } },
{ "type": "Feature", "properties": { "fid": 15, "uipfonksiyon": "YERLEŞİK KONUT ALANI", "nizam": "A", "yanbahce": "4", "taks": "0.4", "kaks": "1.6", "onbahce": "5.5", "katadedi": "4", "yencok": null, "emsal": null }, "geometry": { "type": "MultiPolygon", "coordinates": [ [ [ [ 585763.346370118204504, 4234277.547249882481992 ], [ 585756.568787814001553, 4234278.631994042545557 ], [ 585696.035500383120961, 4234286.991352782584727 ], [ 585691.493839345057495, 4234287.901862953789532 ], [ 585691.698036203975789, 4234288.907436164095998 ], [ 585688.344946104916744, 4234339.336852832697332 ], [ 585689.767794320243411, 4234342.469445922411978 ], [ 585693.579515212099068, 4234343.955460716970265 ], [ 585705.815601450623944, 4234343.056332251988351 ], [ 585724.863741745124571, 4234342.115331309847534 ], [ 585768.513352624257095, 4234336.242978999391198 ], [ 585772.944609782309271, 4234335.646824699826539 ], [ 585797.651509328861721, 4234331.864327348768711 ], [ 585843.28408014785964, 4234324.283767715096474 ], [ 585845.63599924382288, 4234322.090088598430157 ], [ 585846.228420117055066, 4234319.569122469983995 ], [ 585837.754421995952725, 4234268.555711598135531 ], [ 585835.545083926874213, 4234266.202042112126946 ], [ 585832.357970860088244, 4234265.688967993482947 ], [ 585787.941370489541441, 4234273.209572345018387 ], [ 585763.346370118204504, 4234277.547249882481992 ] ] ] ] } },
{ "type": "Feature", "properties": { "fid": 16, "uipfonksiyon": "YERLEŞİK KONUT ALANI", "nizam": "A", "yanbahce": "4", "taks": "0.4", "kaks": "1.6", "onbahce": "5.5", "katadedi": "4", "yencok": null, "emsal": null }, "geometry": { "type": "MultiPolygon", "coordinates": [ [ [ [ 585848.047187653253786, 4234266.127676919102669 ], [ 585856.4137752027018, 4234318.570427546277642 ], [ 585858.051164247444831, 4234320.572972910478711 ], [ 585861.123438831767999, 4234321.512147520668805 ], [ 585968.120330734876916, 4234303.975639171898365 ], [ 585970.145970216603018, 4234302.286692664958537 ], [ 585971.036066352506168, 4234299.135340098291636 ], [ 585961.351911279372871, 4234246.942010315135121 ], [ 585959.455240216106176, 4234245.18006607145071 ], [ 585956.280877469107509, 4234244.669733056798577 ], [ 585859.566251310054213, 4234261.064746084623039 ], [ 585850.264092644210905, 4234263.024862154386938 ], [ 585848.047187653253786, 4234266.127676919102669 ] ] ] ] } },
{ "type": "Feature", "properties": { "fid": 17, "uipfonksiyon": "YERLEŞİK KONUT ALANI", "nizam": "A", "yanbahce": "4", "taks": "0.4", "kaks": "1.6", "onbahce": "5.5", "katadedi": "4", "yencok": null, "emsal": null }, "geometry": { "type": "MultiPolygon", "coordinates": [ [ [ [ 585836.813807576312684, 4234199.783752510324121 ], [ 585845.132909064297564, 4234249.586309767328203 ], [ 585846.781626602984034, 4234251.593533386476338 ], [ 585849.214834720361978, 4234252.50277176965028 ], [ 585895.366229768842459, 4234245.13945328630507 ], [ 585955.252966398256831, 4234234.65795184019953 ], [ 585957.857316540321335, 4234232.775132521986961 ], [ 585958.777772594825365, 4234229.696105256676674 ], [ 585949.038022582884878, 4234177.740500842221081 ], [ 585947.125614741467871, 4234176.013825012370944 ], [ 585944.607387344003655, 4234175.468624180182815 ], [ 585899.513455467647873, 4234183.859480373561382 ], [ 585845.386346579063684, 4234193.243425070308149 ], [ 585839.064878516364843, 4234194.757777629420161 ], [ 585837.326966220396571, 4234196.641718002036214 ], [ 585836.813807576312684, 4234199.783752510324121 ] ] ] ] } },
{ "type": "Feature", "properties": { "fid": 18, "uipfonksiyon": "TİCARET - KONUT ALANI", "nizam": "A", "yanbahce": "4", "taks": "0.4", "kaks": "1.6", "onbahce": "5.5", "katadedi": "4", "yencok": null, "emsal": null }, "geometry": { "type": "MultiPolygon", "coordinates": [ [ [ [ 586203.005211192648858, 4233996.600461083464324 ], [ 586228.144955797703005, 4233992.054055224172771 ], [ 586222.928506517549977, 4233966.332799151539803 ], [ 586258.649805965716951, 4233960.389038097113371 ], [ 586253.735055370139889, 4233937.454062677919865 ], [ 586251.467352566192858, 4233935.155919253826141 ], [ 586248.919543147902004, 4233934.638622126542032 ], [ 586220.072102005011402, 4233940.19312877766788 ], [ 586194.419219127506949, 4233945.475732266902924 ], [ 586192.901370700448751, 4233946.600238339975476 ], [ 586191.722144097439013, 4233948.812451382167637 ], [ 586191.958296961616725, 4233952.935158696956933 ], [ 586198.924789099488407, 4233993.739628576673567 ], [ 586200.583190025994554, 4233995.714622831903398 ], [ 586203.005211192648858, 4233996.600461083464324 ] ] ] ] } },
{ "type": "Feature", "properties": { "fid": 19, "uipfonksiyon": "CAMİ", "nizam": null, "yanbahce": "3", "taks": null, "kaks": null, "onbahce": null, "katadedi": null, "yencok": "12", "emsal": "1.6" }, "geometry": { "type": "MultiPolygon", "coordinates": [ [ [ [ 586222.928506517549977, 4233966.332799151539803 ], [ 586228.144955797703005, 4233992.054055224172771 ], [ 586257.506879934691824, 4233986.794483534060419 ], [ 586258.802295497851446, 4233987.089443466626108 ], [ 586261.00606819416862, 4233985.683934137225151 ], [ 586262.294043540139683, 4233982.704617355018854 ], [ 586258.649805965716951, 4233960.389038097113371 ], [ 586222.928506517549977, 4233966.332799151539803 ] ] ] ] } },
{ "type": "Feature", "properties": { "fid": 20, "uipfonksiyon": "TİCARET - KONUT ALANI", "nizam": "A", "yanbahce": "4", "taks": "0.4", "kaks": "1.6", "onbahce": "5.5", "katadedi": "4", "yencok": null, "emsal": null }, "geometry": { "type": "MultiPolygon", "coordinates": [ [ [ [ 586233.601792333531193, 4234001.878732958808541 ], [ 586248.923262304975651, 4234090.689023501239717 ], [ 586250.261333025759086, 4234096.745554132387042 ], [ 586254.075615038629621, 4234114.010199032723904 ], [ 586290.175981232314371, 4234106.857919907197356 ], [ 586266.145831026602536, 4234000.250402468256652 ], [ 586263.680517203756608, 4233997.439343072474003 ], [ 586259.227967772283591, 4233997.065350798889995 ], [ 586233.601792333531193, 4234001.878732958808541 ] ] ] ] } },
{ "type": "Feature", "properties": { "fid": 21, "uipfonksiyon": "YERLEŞİK KONUT ALANI", "nizam": "A", "yanbahce": "4", "taks": "0.4", "kaks": "1.6", "onbahce": "5.5", "katadedi": "4", "yencok": null, "emsal": null }, "geometry": { "type": "MultiPolygon", "coordinates": [ [ [ [ 586202.088866652338766, 4234010.231013284064829 ], [ 586222.317183932871558, 4234115.189832082018256 ], [ 586224.497267023543827, 4234117.433445677161217 ], [ 586226.950658423476852, 4234118.000239658169448 ], [ 586254.075615038629621, 4234114.010199032723904 ], [ 586250.261333025759086, 4234096.745554132387042 ], [ 586241.437039968790486, 4234047.295433852821589 ], [ 586233.601792333531193, 4234001.878732958808541 ], [ 586206.12015094270464, 4234006.382123736664653 ], [ 586203.288527099764906, 4234007.927203926257789 ], [ 586202.088866652338766, 4234010.231013284064829 ] ] ] ] } },
{ "type": "Feature", "properties": { "fid": 22, "uipfonksiyon": "PARK", "nizam": null, "yanbahce": "3", "taks": null, "kaks": null, "onbahce": null, "katadedi": null, "yencok": null, "emsal": null }, "geometry": { "type": "MultiPolygon", "coordinates": [ [ [ [ 586204.634978663409129, 4234193.132754004560411 ], [ 586221.791050708852708, 4234190.065723149105906 ], [ 586224.389152718591504, 4234188.138817240484059 ], [ 586225.264006090932526, 4234185.024699064902961 ], [ 586221.363902735407464, 4234166.166452505625784 ], [ 586217.674300691694953, 4234163.896787950769067 ], [ 586196.43611172423698, 4234166.986747861839831 ], [ 586199.605079095577821, 4234189.482624921016395 ], [ 586200.133863635361195, 4234190.710868977941573 ], [ 586202.051562673295848, 4234192.540434701368213 ], [ 586204.634978663409129, 4234193.132754004560411 ] ] ] ] } },
{ "type": "Feature", "properties": { "fid": 23, "uipfonksiyon": "YERLEŞİK KONUT ALANI", "nizam": "A", "yanbahce": "4", "taks": "0.4", "kaks": "1.6", "onbahce": "5.5", "katadedi": "4", "yencok": null, "emsal": null }, "geometry": { "type": "MultiPolygon", "coordinates": [ [ [ [ 586192.240319527336396, 4234164.824273115023971 ], [ 586193.146574498852715, 4234163.60703500919044 ], [ 586215.309513923595659, 4234160.048475046642125 ], [ 586217.723635657341219, 4234158.970013862475753 ], [ 586219.435585027444176, 4234156.168907669372857 ], [ 586215.580237136106007, 4234134.5670568915084 ], [ 586213.400577473570593, 4234132.292674900963902 ], [ 586210.931418125866912, 4234131.715051828883588 ], [ 586160.894273142563179, 4234139.645448079332709 ], [ 586123.538319883286022, 4234145.38397409953177 ], [ 586096.818476921413094, 4234150.337862738408148 ], [ 586094.842487779445946, 4234151.993091949261725 ], [ 586093.953567357966676, 4234154.412624407559633 ], [ 586096.289576970622875, 4234167.190372979268432 ], [ 586100.767711624852382, 4234196.876508106477559 ], [ 586102.379590724012814, 4234206.947472390718758 ], [ 586103.757541331928223, 4234209.181206356734037 ], [ 586106.077066858881153, 4234210.409260363318026 ], [ 586118.39215783867985, 4234208.174555592238903 ], [ 586144.863423032220453, 4234203.509689278900623 ], [ 586192.128968973876908, 4234195.373921927064657 ], [ 586193.802857947186567, 4234194.467759809456766 ], [ 586195.594868474174291, 4234191.188159293495119 ], [ 586192.240319527336396, 4234164.824273115023971 ] ] ] ] } },
{ "type": "Feature", "properties": { "fid": 24, "uipfonksiyon": "TİCARET - KONUT ALANI", "nizam": "A", "yanbahce": "4", "taks": "0.4", "kaks": "1.6", "onbahce": "5.5", "katadedi": "4", "yencok": null, "emsal": null }, "geometry": { "type": "MultiPolygon", "coordinates": [ [ [ [ 586258.974511249340139, 4234124.031458457931876 ], [ 586285.814030926092528, 4234244.942175491712987 ], [ 586310.947472904343158, 4234240.495415048673749 ], [ 586314.180781317874789, 4234240.130217897705734 ], [ 586315.802169190603308, 4234237.399849095381796 ], [ 586310.910450155846775, 4234213.764990613795817 ], [ 586292.325030397740193, 4234118.172253929078579 ], [ 586258.974511249340139, 4234124.031458457931876 ] ] ] ] } },
{ "type": "Feature", "properties": { "fid": 25, "uipfonksiyon": "YERLEŞİK KONUT ALANI", "nizam": "A", "yanbahce": "4", "taks": "0.4", "kaks": "1.6", "onbahce": "5.5", "katadedi": "4", "yencok": null, "emsal": null }, "geometry": { "type": "MultiPolygon", "coordinates": [ [ [ [ 586258.974511249340139, 4234124.031458457931876 ], [ 586234.141813759226352, 4234128.052293905988336 ], [ 586227.656067240284756, 4234129.76983532961458 ], [ 586225.842881674412638, 4234133.896804860793054 ], [ 586247.959013311425224, 4234248.838183880783617 ], [ 586250.456530626164749, 4234250.817078961990774 ], [ 586255.452865648316219, 4234250.611437214538455 ], [ 586285.814030926092528, 4234244.942175491712987 ], [ 586258.974511249340139, 4234124.031458457931876 ] ] ] ] } },
{ "type": "Feature", "properties": { "fid": 26, "uipfonksiyon": "YERLEŞİK KONUT ALANI", "nizam": "A", "yanbahce": "4", "taks": "0.4", "kaks": "1.6", "onbahce": "5.5", "katadedi": "4", "yencok": null, "emsal": null }, "geometry": { "type": "MultiPolygon", "coordinates": [ [ [ [ 586120.806133380508982, 4234274.791796926409006 ], [ 586217.757352725486271, 4234257.203657279722393 ], [ 586235.143568621249869, 4234253.769865323789418 ], [ 586236.898841903777793, 4234251.836963842622936 ], [ 586237.440464930725284, 4234249.282803134061396 ], [ 586228.18497845553793, 4234202.224238632246852 ], [ 586226.274343503406271, 4234200.502967674285173 ], [ 586223.760899229324423, 4234199.959003049880266 ], [ 586122.465283011901192, 4234218.034383448772132 ], [ 586109.370822590542957, 4234220.376527775079012 ], [ 586105.841137620038353, 4234222.942242519930005 ], [ 586105.310650236788206, 4234226.06730514857918 ], [ 586113.873034729156643, 4234272.944229496642947 ], [ 586116.421118805999868, 4234274.949108281172812 ], [ 586120.806133380508982, 4234274.791796926409006 ] ] ] ] } },
{ "type": "Feature", "properties": { "fid": 27, "uipfonksiyon": "YERLEŞİK KONUT ALANI", "nizam": "A", "yanbahce": "4", "taks": "0.4", "kaks": "1.6", "onbahce": "5.5", "katadedi": "4", "yencok": null, "emsal": null }, "geometry": { "type": "MultiPolygon", "coordinates": [ [ [ [ 585974.634317869436927, 4234231.499834716320038 ], [ 586090.052364962757565, 4234213.108726478181779 ], [ 586091.837388701620512, 4234211.236207108013332 ], [ 586092.447617613710463, 4234208.722194536589086 ], [ 586083.82172594347503, 4234156.884875166229904 ], [ 586081.916608987608925, 4234154.299350015819073 ], [ 586078.182276348932646, 4234153.478107618167996 ], [ 585976.791769732139073, 4234170.684258250519633 ], [ 585964.923317677457817, 4234172.344864713028073 ], [ 585961.985657905461267, 4234173.85868305247277 ], [ 585960.622450233902782, 4234177.547410083003342 ], [ 585969.727558541111648, 4234227.966689285822213 ], [ 585971.586365726077929, 4234230.558991967700422 ], [ 585974.634317869436927, 4234231.499834716320038 ] ] ] ] } },
{ "type": "Feature", "properties": { "fid": 28, "uipfonksiyon": "YERLEŞİK KONUT ALANI", "nizam": "A", "yanbahce": "4", "taks": "0.4", "kaks": "1.6", "onbahce": "5.5", "katadedi": "4", "yencok": null, "emsal": null }, "geometry": { "type": "MultiPolygon", "coordinates": [ [ [ [ 585972.866889430675656, 4234245.742023144848645 ], [ 585978.483191171777435, 4234278.064249110408127 ], [ 585982.227129998849705, 4234297.934150298126042 ], [ 585983.92485847894568, 4234299.88786044716835 ], [ 585987.026058978633955, 4234300.733853039331734 ], [ 586100.017133272835054, 4234278.78708669077605 ], [ 586102.161587000242434, 4234277.37898591067642 ], [ 586103.420142386690713, 4234274.451562371104956 ], [ 586095.097498047281988, 4234226.580106231383979 ], [ 586092.920294469571672, 4234224.21338028088212 ], [ 586089.752063182066195, 4234223.662093011662364 ], [ 585979.297407428617589, 4234240.934775767847896 ], [ 585974.688625664683059, 4234242.344025575555861 ], [ 585972.866889430675656, 4234245.742023144848645 ] ] ] ] } },
{ "type": "Feature", "properties": { "fid": 29, "uipfonksiyon": "TİCARET - KONUT ALANI", "nizam": "A", "yanbahce": "6.5", "taks": "0.3", "kaks": "1.2", "onbahce": "5.5", "katadedi": "4", "yencok": null, "emsal": null }, "geometry": { "type": "MultiPolygon", "coordinates": [ [ [ [ 586160.034068919718266, 4234338.779436328448355 ], [ 586223.133809528546408, 4234329.33409527875483 ], [ 586300.593499710201286, 4234317.144845569506288 ], [ 586312.23451656056568, 4234315.312986171804368 ], [ 586313.817896200926043, 4234314.781423765234649 ], [ 586315.49267163744662, 4234313.325973559170961 ], [ 586316.372761953272857, 4234311.289150272496045 ], [ 586316.653690885868855, 4234307.840254943817854 ], [ 586316.818841129192151, 4234305.407007627189159 ], [ 586317.215438885032199, 4234267.33362306561321 ], [ 586317.307028556242585, 4234258.541014636866748 ], [ 586317.476227598264813, 4234250.03138071205467 ], [ 586316.52813676383812, 4234249.850812181830406 ], [ 586312.86548841279, 4234250.722838710993528 ], [ 586271.623879910912365, 4234257.935202677734196 ], [ 586205.815730872098356, 4234269.443782000802457 ], [ 586124.052160222548991, 4234284.34818605799228 ], [ 586118.157688667415641, 4234286.56947316788137 ], [ 586117.429243284743279, 4234287.67075586039573 ], [ 586116.942319367546588, 4234290.242748179472983 ], [ 586117.037244030740112, 4234290.897553408518434 ], [ 586121.798871499369852, 4234313.218322264030576 ], [ 586127.4919163758168, 4234338.9020184148103 ], [ 586129.04767571715638, 4234341.551426226273179 ], [ 586130.645269418950193, 4234342.509429588913918 ], [ 586132.482656795298681, 4234342.816160263493657 ], [ 586135.106065236614086, 4234342.467422914691269 ], [ 586160.034068919718266, 4234338.779436328448355 ] ] ] ] } },
{ "type": "Feature", "properties": { "fid": 30, "uipfonksiyon": "YERLEŞİK KONUT ALANI", "nizam": "A", "yanbahce": "6.5", "taks": "0.3", "kaks": "1.2", "onbahce": "5.5", "katadedi": "4", "yencok": null, "emsal": null }, "geometry": { "type": "MultiPolygon", "coordinates": [ [ [ [ 585798.722150094108656, 4234402.106162022799253 ], [ 585826.697561852750368, 4234397.637005612254143 ], [ 585837.596215539495461, 4234396.117951853200793 ], [ 585893.91020874097012, 4234387.343412754125893 ], [ 585950.552355437423103, 4234378.640211373567581 ], [ 585953.768637585220858, 4234378.244021249003708 ], [ 585971.215654140454717, 4234347.936770309694111 ], [ 585973.971467565512285, 4234339.725571124814451 ], [ 585975.559814244159497, 4234334.992946327663958 ], [ 585974.844437241903506, 4234318.160507286898792 ], [ 585973.602086510625668, 4234315.669585546478629 ], [ 585972.513485654373653, 4234314.780187584459782 ], [ 585970.528588345041499, 4234314.094924774952233 ], [ 585969.123143072123639, 4234314.123282192274928 ], [ 585948.416585443657823, 4234317.431217230856419 ], [ 585922.03374352119863, 4234321.781228111125529 ], [ 585883.555876024300233, 4234328.03871772158891 ], [ 585849.022218546480872, 4234333.654777470976114 ], [ 585828.765079969423823, 4234336.949108535423875 ], [ 585805.098948566941544, 4234340.797829397022724 ], [ 585754.978739050100558, 4234348.437342500314116 ], [ 585752.645166411530226, 4234349.797526294365525 ], [ 585751.357573784072883, 4234352.05195061955601 ], [ 585753.660258608055301, 4234370.678922243416309 ], [ 585754.795199151383713, 4234377.715648957528174 ], [ 585798.722150094108656, 4234402.106162022799253 ] ] ] ] } },
{ "type": "Feature", "properties": { "fid": 31, "uipfonksiyon": "YERLEŞİK KONUT ALANI", "nizam": "A", "yanbahce": "6.5", "taks": "0.3", "kaks": "1.2", "onbahce": "5.5", "katadedi": "4", "yencok": null, "emsal": null }, "geometry": { "type": "MultiPolygon", "coordinates": [ [ [ [ 585972.430610109586269, 4234369.355992245487869 ], [ 585973.996452396037057, 4234372.751349382102489 ], [ 585976.942554597160779, 4234374.383727653883398 ], [ 586056.004840196459554, 4234358.687208213843405 ], [ 586050.525030981516466, 4234329.83094593603164 ], [ 586112.378782746964134, 4234316.990639371797442 ], [ 586107.005387696321122, 4234292.003271522000432 ], [ 586106.024503070279025, 4234290.342934649437666 ], [ 586103.890431348467246, 4234288.931349138729274 ], [ 586102.625078762997873, 4234288.679765283130109 ], [ 586101.33747530716937, 4234288.760319257155061 ], [ 586053.339495594264008, 4234298.083516154438257 ], [ 586010.901149493874982, 4234306.326801789924502 ], [ 585989.268953660153784, 4234310.564213828183711 ], [ 585987.710503253852949, 4234311.390209887176752 ], [ 585986.535833058878779, 4234312.705955718643963 ], [ 585985.891120780841447, 4234314.347717953845859 ], [ 585985.88354382768739, 4234317.675536649301648 ], [ 585986.539976754342206, 4234336.564243568107486 ], [ 585981.009092837339267, 4234352.976575178094208 ], [ 585973.100342372665182, 4234366.601551229134202 ], [ 585972.430610109586269, 4234369.355992245487869 ] ] ] ] } },
{ "type": "Feature", "properties": { "fid": 32, "uipfonksiyon": "CAMİ", "nizam": null, "yanbahce": "3", "taks": null, "kaks": null, "onbahce": null, "katadedi": null, "yencok": "12", "emsal": "1.2" }, "geometry": { "type": "MultiPolygon", "coordinates": [ [ [ [ 586050.525030981516466, 4234329.83094593603164 ], [ 586056.004840196459554, 4234358.687208213843405 ], [ 586114.063156918040477, 4234347.256372090429068 ], [ 586116.714651852613315, 4234345.807404739782214 ], [ 586117.801152096595615, 4234342.080995067022741 ], [ 586112.378782746964134, 4234316.990639371797442 ], [ 586050.525030981516466, 4234329.83094593603164 ] ] ] ] } }
]
}
