{"type":"FeatureCollection","features":[{"type":"Feature","geometry":{"type":"Point","coordinates":[585852.4808245451,4234300.493789524]},"properties":{"type":"light"}},{"type":"Feature","geometry":{"type":"Point","coordinates":[585848.3086923116,4234275.863690436]},"properties":{"type":"light"}},{"type":"Feature","geometry":{"type":"Point","coordinates":[585844.136560078,4234251.233591347]},"properties":{"type":"light"}},{"type":"Feature","geometry":{"type":"Point","coordinates":[585839.9644278445,4234226.603492259]},"properties":{"type":"light"}},{"type":"Feature","geometry":{"type":"Point","coordinates":[585835.792295611,4234201.97339317]},"properties":{"type":"light"}},{"type":"Feature","geometry":{"type":"Point","coordinates":[585823.7325251129,4234178.679393858]},"properties":{"type":"light"}},{"type":"Feature","geometry":{"type":"Point","coordinates":[585819.5603928793,4234154.049294769]},"properties":{"type":"light"}},{"type":"Feature","geometry":{"type":"Point","coordinates":[585815.3882606458,4234129.419195681]},"properties":{"type":"light"}},{"type":"Feature","geometry":{"type":"Point","coordinates":[585819.1037666769,4234103.4529968165]},"properties":{"type":"light"}},{"type":"Feature","geometry":{"type":"Point","coordinates":[585807.0439961788,4234080.158997504]},"properties":{"type":"light"}},{"type":"Feature","geometry":{"type":"Point","coordinates":[585802.8718639452,4234055.528898415]},"properties":{"type":"light"}},{"type":"Feature","geometry":{"type":"Point","coordinates":[585798.6997317116,4234030.898799327]},"properties":{"type":"light"}},{"type":"Feature","geometry":{"type":"Point","coordinates":[585980.2764006524,4234295.477859499]},"properties":{"type":"light"}},{"type":"Feature","geometry":{"type":"Point","coordinates":[585973.8624021751,4234261.567784721]},"properties":{"type":"light"}},{"type":"Feature","geometry":{"type":"Point","coordinates":[585969.7847798312,4234239.229892885]},"properties":{"type":"light"}},{"type":"Feature","geometry":{"type":"Point","coordinates":[585957.8372038832,4234218.328604776]},"properties":{"type":"light"}},{"type":"Feature","geometry":{"type":"Point","coordinates":[585953.7595815394,4234195.990712942]},"properties":{"type":"light"}},{"type":"Feature","geometry":{"type":"Point","coordinates":[585949.6819591956,4234173.652821106]},"properties":{"type":"light"}},{"type":"Feature","geometry":{"type":"Point","coordinates":[585945.6043368519,4234151.31492927]},"properties":{"type":"light"}},{"type":"Feature","geometry":{"type":"Point","coordinates":[585941.526714508,4234128.9770374345]},"properties":{"type":"light"}},{"type":"Feature","geometry":{"type":"Point","coordinates":[585946.100509505,4234104.167128157]},"properties":{"type":"light"}},{"type":"Feature","geometry":{"type":"Point","coordinates":[585948.6167622948,4234102.585173523]},"properties":{"type":"light"}},{"type":"Feature","geometry":{"type":"Point","coordinates":[585950.9720641624,4234073.92100845]},"properties":{"type":"light"}},{"type":"Feature","geometry":{"type":"Point","coordinates":[585938.4769641779,4234052.80698992]},"properties":{"type":"light"}},{"type":"Feature","geometry":{"type":"Point","coordinates":[585941.6558545105,4234028.479557702]},"properties":{"type":"light"}},{"type":"Feature","geometry":{"type":"Point","coordinates":[585936.9977496846,4234005.758832328]},"properties":{"type":"light"}},{"type":"Feature","geometry":{"type":"Point","coordinates":[586061.6983236572,4233979.740342209]},"properties":{"type":"light"}},{"type":"Feature","geometry":{"type":"Point","coordinates":[586065.1171161899,4233998.163835302]},"properties":{"type":"light"}},{"type":"Feature","geometry":{"type":"Point","coordinates":[586063.7868238525,4234037.6049234625]},"properties":{"type":"light"}},{"type":"Feature","geometry":{"type":"Point","coordinates":[586074.8209552856,4234056.003522252]},"properties":{"type":"light"}},{"type":"Feature","geometry":{"type":"Point","coordinates":[586074.3271175748,4234101.15486179]},"properties":{"type":"light"}},{"type":"Feature","geometry":{"type":"Point","coordinates":[586086.4672006042,4234123.93464675]},"properties":{"type":"light"}},{"type":"Feature","geometry":{"type":"Point","coordinates":[586090.7288204627,4234148.103610628]},"properties":{"type":"light"}},{"type":"Feature","geometry":{"type":"Point","coordinates":[586094.9904403213,4234172.272574506]},"properties":{"type":"light"}},{"type":"Feature","geometry":{"type":"Point","coordinates":[586099.25206018,4234196.441538383]},"properties":{"type":"light"}},{"type":"Feature","geometry":{"type":"Point","coordinates":[586100.0779531227,4234244.5153972525]},"properties":{"type":"light"}},{"type":"Feature","geometry":{"type":"Point","coordinates":[586112.3543772706,4234265.402264178]},"properties":{"type":"light"}},{"type":"Feature","geometry":{"type":"Point","coordinates":[586108.9335754473,4234289.387049246]},"properties":{"type":"light"}},{"type":"Feature","geometry":{"type":"Point","coordinates":[586121.2099995952,4234310.273916171]},"properties":{"type":"light"}},{"type":"Feature","geometry":{"type":"Point","coordinates":[586117.7891977719,4234334.258701238]},"properties":{"type":"light"}},{"type":"Feature","geometry":{"type":"Point","coordinates":[586183.6544041123,4233956.858900711]},"properties":{"type":"light"}},{"type":"Feature","geometry":{"type":"Point","coordinates":[586187.215646334,4233980.125683227]},"properties":{"type":"light"}},{"type":"Feature","geometry":{"type":"Point","coordinates":[586202.7620090608,4234022.7607477205]},"properties":{"type":"light"}},{"type":"Feature","geometry":{"type":"Point","coordinates":[586199.0215702594,4234045.064304308]},"properties":{"type":"light"}},{"type":"Feature","geometry":{"type":"Point","coordinates":[586203.1288696217,4234065.814475654]},"properties":{"type":"light"}},{"type":"Feature","geometry":{"type":"Point","coordinates":[586207.2361689841,4234086.564646998]},"properties":{"type":"light"}},{"type":"Feature","geometry":{"type":"Point","coordinates":[586211.3434683464,4234107.314818343]},"properties":{"type":"light"}},{"type":"Feature","geometry":{"type":"Point","coordinates":[586227.3192903069,4234148.089238079]},"properties":{"type":"light"}},{"type":"Feature","geometry":{"type":"Point","coordinates":[586223.4669819836,4234171.088289955]},"properties":{"type":"light"}},{"type":"Feature","geometry":{"type":"Point","coordinates":[586227.4793148867,4234192.621934588]},"properties":{"type":"light"}},{"type":"Feature","geometry":{"type":"Point","coordinates":[586239.3562890162,4234212.69017198]},"properties":{"type":"light"}},{"type":"Feature","geometry":{"type":"Point","coordinates":[586235.5039806929,4234235.689223856]},"properties":{"type":"light"}},{"type":"Feature","geometry":{"type":"Point","coordinates":[585642.4408081787,4234101.433317959]},"properties":{"type":"light"}},{"type":"Feature","geometry":{"type":"Point","coordinates":[585674.4728954154,4234088.8343306435]},"properties":{"type":"light"}},{"type":"Feature","geometry":{"type":"Point","coordinates":[585692.8054309287,4234075.429160744]},"properties":{"type":"light"}},{"type":"Feature","geometry":{"type":"Point","coordinates":[585713.2825737034,4234069.731173189]},"properties":{"type":"light"}},{"type":"Feature","geometry":{"type":"Point","coordinates":[585733.7597164781,4234064.033185635]},"properties":{"type":"light"}},{"type":"Feature","geometry":{"type":"Point","coordinates":[585756.381466514,4234066.042380423]},"properties":{"type":"light"}},{"type":"Feature","geometry":{"type":"Point","coordinates":[585791.7835224763,4234056.486632813]},"properties":{"type":"light"}},{"type":"Feature","geometry":{"type":"Point","coordinates":[585812.3769675915,4234041.677767571]},"properties":{"type":"light"}},{"type":"Feature","geometry":{"type":"Point","coordinates":[585829.3225187198,4234030.9719308885]},"properties":{"type":"light"}},{"type":"Feature","geometry":{"type":"Point","coordinates":[585848.0608976039,4234052.617395417]},"properties":{"type":"light"}},{"type":"Feature","geometry":{"type":"Point","coordinates":[585843.8602696684,4234074.05718432]},"properties":{"type":"light"}},{"type":"Feature","geometry":{"type":"Point","coordinates":[585847.5283491567,4234094.053559395]},"properties":{"type":"light"}},{"type":"Feature","geometry":{"type":"Point","coordinates":[585835.8227880145,4234111.817472579]},"properties":{"type":"light"}},{"type":"Feature","geometry":{"type":"Point","coordinates":[585874.496357778,4234106.277196003]},"properties":{"type":"light"}},{"type":"Feature","geometry":{"type":"Point","coordinates":[585894.4749266417,4234103.178915271]},"properties":{"type":"light"}},{"type":"Feature","geometry":{"type":"Point","coordinates":[585914.4534955054,4234100.080634537]},"properties":{"type":"light"}},{"type":"Feature","geometry":{"type":"Point","coordinates":[585938.686134806,4234096.529733745]},"properties":{"type":"light"}},{"type":"Feature","geometry":{"type":"Point","coordinates":[585976.8627152921,4234097.895839745]},"properties":{"type":"light"}},{"type":"Feature","geometry":{"type":"Point","coordinates":[586001.4485707382,4234094.386723301]},"properties":{"type":"light"}},{"type":"Feature","geometry":{"type":"Point","coordinates":[586024.9040493099,4234082.957868976]},"properties":{"type":"light"}},{"type":"Feature","geometry":{"type":"Point","coordinates":[586050.6202816302,4234087.368490415]},"properties":{"type":"light"}},{"type":"Feature","geometry":{"type":"Point","coordinates":[586095.7795534619,4234072.206224149]},"properties":{"type":"light"}},{"type":"Feature","geometry":{"type":"Point","coordinates":[586117.5959743317,4234068.455095651]},"properties":{"type":"light"}},{"type":"Feature","geometry":{"type":"Point","coordinates":[586140.7680272949,4234072.588271918]},"properties":{"type":"light"}},{"type":"Feature","geometry":{"type":"Point","coordinates":[586162.5844481646,4234068.837143419]},"properties":{"type":"light"}},{"type":"Feature","geometry":{"type":"Point","coordinates":[586183.0452369408,4234057.201710155]},"properties":{"type":"light"}},{"type":"Feature","geometry":{"type":"Point","coordinates":[586259.0294746201,4233987.164992483]},"properties":{"type":"light"}},{"type":"Feature","geometry":{"type":"Point","coordinates":[586243.1099105072,4233998.039239997]},"properties":{"type":"light"}},{"type":"Feature","geometry":{"type":"Point","coordinates":[586209.2007466933,4233996.006682274]},"properties":{"type":"light"}},{"type":"Feature","geometry":{"type":"Point","coordinates":[586173.4597421264,4234010.518138193]},"properties":{"type":"light"}},{"type":"Feature","geometry":{"type":"Point","coordinates":[586150.1474479436,4234006.423884971]},"properties":{"type":"light"}},{"type":"Feature","geometry":{"type":"Point","coordinates":[586129.5567480176,4234018.09646164]},"properties":{"type":"light"}},{"type":"Feature","geometry":{"type":"Point","coordinates":[586107.6052509631,4234021.885623363]},"properties":{"type":"light"}},{"type":"Feature","geometry":{"type":"Point","coordinates":[586076.2698368352,4234027.628066899]},"properties":{"type":"light"}},{"type":"Feature","geometry":{"type":"Point","coordinates":[586288.1101251133,4234107.89242739]},"properties":{"type":"light"}},{"type":"Feature","geometry":{"type":"Point","coordinates":[586266.6466138392,4234120.865160631]},"properties":{"type":"light"}},{"type":"Feature","geometry":{"type":"Point","coordinates":[586243.445120765,4234126.028961853]},"properties":{"type":"light"}},{"type":"Feature","geometry":{"type":"Point","coordinates":[586197.7393465759,4234134.33370767]},"properties":{"type":"light"}},{"type":"Feature","geometry":{"type":"Point","coordinates":[586174.4521252068,4234129.493365311]},"properties":{"type":"light"}},{"type":"Feature","geometry":{"type":"Point","coordinates":[586153.3674787102,4234140.500693567]},"properties":{"type":"light"}},{"type":"Feature","geometry":{"type":"Point","coordinates":[586130.0802573413,4234135.660351209]},"properties":{"type":"light"}},{"type":"Feature","geometry":{"type":"Point","coordinates":[586108.9956108446,4234146.667679466]},"properties":{"type":"light"}},{"type":"Feature","geometry":{"type":"Point","coordinates":[586063.3465195709,4234145.732723307]},"properties":{"type":"light"}},{"type":"Feature","geometry":{"type":"Point","coordinates":[586041.1225925519,4234149.616477182]},"properties":{"type":"light"}},{"type":"Feature","geometry":{"type":"Point","coordinates":[586018.8986655327,4234153.500231058]},"properties":{"type":"light"}},{"type":"Feature","geometry":{"type":"Point","coordinates":[585998.0519117208,4234165.264555596]},"properties":{"type":"light"}},{"type":"Feature","geometry":{"type":"Point","coordinates":[585975.8279847017,4234169.148309471]},"properties":{"type":"light"}},{"type":"Feature","geometry":{"type":"Point","coordinates":[585928.9729706693,4234177.305461159]},"properties":{"type":"light"}},{"type":"Feature","geometry":{"type":"Point","coordinates":[585904.3467010295,4234181.578020142]},"properties":{"type":"light"}},{"type":"Feature","geometry":{"type":"Point","coordinates":[585879.7204313898,4234185.850579125]},"properties":{"type":"light"}},{"type":"Feature","geometry":{"type":"Point","coordinates":[585855.0941617499,4234190.123138108]},"properties":{"type":"light"}},{"type":"Feature","geometry":{"type":"Point","coordinates":[585807.4910921192,4234198.082319481]},"properties":{"type":"light"}},{"type":"Feature","geometry":{"type":"Point","coordinates":[585784.5644221745,4234201.760572218]},"properties":{"type":"light"}},{"type":"Feature","geometry":{"type":"Point","coordinates":[585761.6377522298,4234205.438824955]},"properties":{"type":"light"}},{"type":"Feature","geometry":{"type":"Point","coordinates":[585737.4438039177,4234201.218090066]},"properties":{"type":"light"}},{"type":"Feature","geometry":{"type":"Point","coordinates":[585714.517133973,4234204.896342802]},"properties":{"type":"light"}},{"type":"Feature","geometry":{"type":"Point","coordinates":[585692.8577423957,4234216.473583166]},"properties":{"type":"light"}},{"type":"Feature","geometry":{"type":"Point","coordinates":[585669.9310724509,4234220.151835903]},"properties":{"type":"light"}},{"type":"Feature","geometry":{"type":"Point","coordinates":[585796.7182571581,4234117.439598242]},"properties":{"type":"light"}},{"type":"Feature","geometry":{"type":"Point","coordinates":[585776.5013597788,4234120.592166437]},"properties":{"type":"light"}},{"type":"Feature","geometry":{"type":"Point","coordinates":[585757.5170644873,4234131.649207549]},"properties":{"type":"light"}},{"type":"Feature","geometry":{"type":"Point","coordinates":[585726.5328015678,4234129.246400437]},"properties":{"type":"light"}},{"type":"Feature","geometry":{"type":"Point","coordinates":[585698.7223748286,4234144.587550918]},"properties":{"type":"light"}},{"type":"Feature","geometry":{"type":"Point","coordinates":[585676.1413974484,4234142.147060472]},"properties":{"type":"light"}},{"type":"Feature","geometry":{"type":"Point","coordinates":[585655.5574174072,4234147.453311381]},"properties":{"type":"light"}},{"type":"Feature","geometry":{"type":"Point","coordinates":[585688.236594812,4234277.728224858]},"properties":{"type":"light"}},{"type":"Feature","geometry":{"type":"Point","coordinates":[585731.6001685611,4234272.050503702]},"properties":{"type":"light"}},{"type":"Feature","geometry":{"type":"Point","coordinates":[585753.3237461132,4234268.774160858]},"properties":{"type":"light"}},{"type":"Feature","geometry":{"type":"Point","coordinates":[585776.2403882738,4234273.408355092]},"properties":{"type":"light"}},{"type":"Feature","geometry":{"type":"Point","coordinates":[585820.0235249709,4234266.666417695]},"properties":{"type":"light"}},{"type":"Feature","geometry":{"type":"Point","coordinates":[585853.1241920548,4234252.945648948]},"properties":{"type":"light"}},{"type":"Feature","geometry":{"type":"Point","coordinates":[585886.8076173678,4234255.016524956]},"properties":{"type":"light"}},{"type":"Feature","geometry":{"type":"Point","coordinates":[585905.2604745127,4234243.712141414]},"properties":{"type":"light"}},{"type":"Feature","geometry":{"type":"Point","coordinates":[585926.4355680433,4234248.174476906]},"properties":{"type":"light"}},{"type":"Feature","geometry":{"type":"Point","coordinates":[585944.8884251881,4234236.870093364]},"properties":{"type":"light"}},{"type":"Feature","geometry":{"type":"Point","coordinates":[585985.358125847,4234230.446448903]},"properties":{"type":"light"}},{"type":"Feature","geometry":{"type":"Point","coordinates":[586028.9367759676,4234223.827043326]},"properties":{"type":"light"}},{"type":"Feature","geometry":{"type":"Point","coordinates":[586052.0133543239,4234220.186193247]},"properties":{"type":"light"}},{"type":"Feature","geometry":{"type":"Point","coordinates":[586075.0899326802,4234216.545343169]},"properties":{"type":"light"}},{"type":"Feature","geometry":{"type":"Point","coordinates":[586118.8272527416,4234217.540602322]},"properties":{"type":"light"}},{"type":"Feature","geometry":{"type":"Point","coordinates":[586160.478780078,4234202.469151685]},"properties":{"type":"light"}},{"type":"Feature","geometry":{"type":"Point","coordinates":[586185.3874723642,4234206.439494282]},"properties":{"type":"light"}},{"type":"Feature","geometry":{"type":"Point","coordinates":[586208.9846961537,4234202.518065822]},"properties":{"type":"light"}},{"type":"Feature","geometry":{"type":"Point","coordinates":[586265.516488401,4234256.727800721]},"properties":{"type":"light"}},{"type":"Feature","geometry":{"type":"Point","coordinates":[586286.9017479422,4234253.024108809]},"properties":{"type":"light"}},{"type":"Feature","geometry":{"type":"Point","coordinates":[586306.9218181827,4234241.43776137]},"properties":{"type":"light"}},{"type":"Feature","geometry":{"type":"Point","coordinates":[586220.7046741745,4234256.715580306]},"properties":{"type":"light"}},{"type":"Feature","geometry":{"type":"Point","coordinates":[586198.70315275,4234260.871489976]},"properties":{"type":"light"}},{"type":"Feature","geometry":{"type":"Point","coordinates":[586176.7016313255,4234265.027399646]},"properties":{"type":"light"}},{"type":"Feature","geometry":{"type":"Point","coordinates":[586154.7001099011,4234269.183309316]},"properties":{"type":"light"}},{"type":"Feature","geometry":{"type":"Point","coordinates":[586134.183465697,4234281.2002074495]},"properties":{"type":"light"}},{"type":"Feature","geometry":{"type":"Point","coordinates":[586090.100056728,4234289.763087263]},"properties":{"type":"light"}},{"type":"Feature","geometry":{"type":"Point","coordinates":[586067.9777870259,4234294.177900541]},"properties":{"type":"light"}},{"type":"Feature","geometry":{"type":"Point","coordinates":[586045.8555173237,4234298.592713818]},"properties":{"type":"light"}},{"type":"Feature","geometry":{"type":"Point","coordinates":[586023.7332476216,4234303.007527094]},"properties":{"type":"light"}},{"type":"Feature","geometry":{"type":"Point","coordinates":[586001.6109779194,4234307.422340372]},"properties":{"type":"light"}},{"type":"Feature","geometry":{"type":"Point","coordinates":[585958.2683532331,4234314.854408694]},"properties":{"type":"light"}},{"type":"Feature","geometry":{"type":"Point","coordinates":[585936.1450467642,4234309.913314381]},"properties":{"type":"light"}},{"type":"Feature","geometry":{"type":"Point","coordinates":[585915.1455884638,4234312.892887039]},"properties":{"type":"light"}},{"type":"Feature","geometry":{"type":"Point","coordinates":[585895.2699783316,4234323.79312667]},"properties":{"type":"light"}},{"type":"Feature","geometry":{"type":"Point","coordinates":[585873.1466718627,4234318.852032356]},"properties":{"type":"light"}},{"type":"Feature","geometry":{"type":"Point","coordinates":[585830.5931857722,4234333.501446301]},"properties":{"type":"light"}},{"type":"Feature","geometry":{"type":"Point","coordinates":[585806.520463709,4234329.371568542]},"properties":{"type":"light"}},{"type":"Feature","geometry":{"type":"Point","coordinates":[585785.0567685645,4234341.027538196]},"properties":{"type":"light"}},{"type":"Feature","geometry":{"type":"Point","coordinates":[585762.2885599607,4234344.790584143]},"properties":{"type":"light"}},{"type":"Feature","geometry":{"type":"Point","coordinates":[585738.2158378975,4234340.660706384]},"properties":{"type":"light"}},{"type":"Feature","geometry":{"type":"Point","coordinates":[585699.3738361216,4234346.984110711]},"properties":{"type":"light"}},{"type":"Feature","geometry":{"type":"Point","coordinates":[585735.6758817695,4234365.078067747]},"properties":{"type":"light"}},{"type":"Feature","geometry":{"type":"Point","coordinates":[585758.0438573104,4234396.463452604]},"properties":{"type":"light"}},{"type":"Feature","geometry":{"type":"Point","coordinates":[585778.9988857424,4234398.282361703]},"properties":{"type":"light"}},{"type":"Feature","geometry":{"type":"Point","coordinates":[585814.053819022,4234404.370293007]},"properties":{"type":"light"}},{"type":"Feature","geometry":{"type":"Point","coordinates":[585834.1392251523,4234401.948648296]},"properties":{"type":"light"}},{"type":"Feature","geometry":{"type":"Point","coordinates":[585854.2246312825,4234399.527003586]},"properties":{"type":"light"}},{"type":"Feature","geometry":{"type":"Point","coordinates":[585896.9317708838,4234393.034487657]},"properties":{"type":"light"}},{"type":"Feature","geometry":{"type":"Point","coordinates":[585919.7819959753,4234388.929346624]},"properties":{"type":"light"}},{"type":"Feature","geometry":{"type":"Point","coordinates":[585944.0468083245,4234392.698146339]},"properties":{"type":"light"}},{"type":"Feature","geometry":{"type":"Point","coordinates":[585966.897033416,4234388.593005305]},"properties":{"type":"light"}},{"type":"Feature","geometry":{"type":"Point","coordinates":[585989.7472585074,4234384.487864272]},"properties":{"type":"light"}},{"type":"Feature","geometry":{"type":"Point","coordinates":[586012.5974835989,4234380.382723238]},"properties":{"type":"light"}},{"type":"Feature","geometry":{"type":"Point","coordinates":[586034.0331214324,4234368.403641458]},"properties":{"type":"light"}},{"type":"Feature","geometry":{"type":"Point","coordinates":[586056.8833465239,4234364.298500424]},"properties":{"type":"light"}},{"type":"Feature","geometry":{"type":"Point","coordinates":[586079.7335716152,4234360.193359392]},"properties":{"type":"light"}},{"type":"Feature","geometry":{"type":"Point","coordinates":[586103.9983839645,4234363.962159106]},"properties":{"type":"light"}},{"type":"Feature","geometry":{"type":"Point","coordinates":[586149.5325150224,4234348.742609975]},"properties":{"type":"light"}},{"type":"Feature","geometry":{"type":"Point","coordinates":[586174.521017406,4234353.458389807]},"properties":{"type":"light"}},{"type":"Feature","geometry":{"type":"Point","coordinates":[586198.4446512641,4234350.245357934]},"properties":{"type":"light"}},{"type":"Feature","geometry":{"type":"Point","coordinates":[586222.3682851222,4234347.032326062]},"properties":{"type":"light"}},{"type":"Feature","geometry":{"type":"Point","coordinates":[586246.2919189804,4234343.819294191]},"properties":{"type":"light"}},{"type":"Feature","geometry":{"type":"Point","coordinates":[586270.2155528385,4234340.606262319]},"properties":{"type":"light"}},{"type":"Feature","geometry":{"type":"Point","coordinates":[586293.0743181712,4234329.464418744]},"properties":{"type":"light"}},{"type":"Feature","geometry":{"type":"Point","coordinates":[586318.0628205548,4234334.180198575]},"properties":{"type":"light"}},{"type":"Feature","geometry":{"type":"Point","coordinates":[586364.8393321808,4234327.53971373]},"properties":{"type":"light"}},{"type":"Feature","geometry":{"type":"Point","coordinates":[585975.4656167803,4234317.908988604]},"properties":{"type":"light"}},{"type":"Feature","geometry":{"type":"Point","coordinates":[585975.1164359766,4234333.467649346]},"properties":{"type":"light"}},{"type":"Feature","geometry":{"type":"Point","coordinates":[585972.7428021785,4234345.618930199]},"properties":{"type":"light"}},{"type":"Feature","geometry":{"type":"Point","coordinates":[585975.39511057,4234359.158432985]},"properties":{"type":"light"}},{"type":"Feature","geometry":{"type":"Point","coordinates":[585970.5100508233,4234368.126773577]},"properties":{"type":"light"}},{"type":"Feature","geometry":{"type":"Point","coordinates":[585967.0450517274,4234379.395753506]},"properties":{"type":"light"}}]}