{
"type": "FeatureCollection",
"name": "yollar",
"crs": { "type": "name", "properties": { "name": "urn:ogc:def:crs:EPSG::5253" } },
"features": [
{ "type": "Feature", "properties": { "fid": 1 }, "geometry": { "type": "LineString", "coordinates": [ [ 585852.709137646364979, 4234325.791938500478864 ], [ 585798.471418610424735, 4234005.600650350563228 ] ] } },
{ "type": "Feature", "properties": { "fid": 2 }, "geometry": { "type": "LineString", "coordinates": [ [ 585978.705887449439615, 4234307.914502549916506 ], [ 585974.005047716782428, 4234284.623978420160711 ], [ 585941.384068966261111, 4234105.920843735337257 ], [ 585943.164690077072009, 4234100.080406490713358 ], [ 585951.711671409080736, 4234097.445087246596813 ], [ 585928.421147279324941, 4233983.841460376046598 ] ] } },
{ "type": "Feature", "properties": { "fid": 3 }, "geometry": { "type": "LineString", "coordinates": [ [ 586054.346672237967141, 4233962.046657980419695 ], [ 586064.603049836470746, 4234017.317137260921299 ], [ 586074.004729301552288, 4234076.291308453306556 ], [ 586099.574448453146033, 4234221.305091721005738 ], [ 586126.141315427026711, 4234355.920047698542476 ] ] } },
{ "type": "Feature", "properties": { "fid": 4 }, "geometry": { "type": "LineString", "coordinates": [ [ 586184.04711395164486, 4233932.986921451985836 ], [ 586194.730840616626665, 4234002.787268997170031 ], [ 586219.374636790598743, 4234127.28829706646502 ], [ 586243.448634209227748, 4234256.490164868533611 ] ] } },
{ "type": "Feature", "properties": { "fid": 5 }, "geometry": { "type": "LineString", "coordinates": [ [ 585627.923528613871895, 4234105.279820134863257 ], [ 585652.923449010122567, 4234090.678727026097476 ], [ 585775.786305657937191, 4234056.490801696665585 ], [ 585805.778372892760672, 4234048.737108625471592 ] ] } },
{ "type": "Feature", "properties": { "fid": 6 }, "geometry": { "type": "LineString", "coordinates": [ [ 585804.11932343733497, 4234038.9429433895275 ], [ 585819.375910451402888, 4234036.51223283354193 ], [ 585840.458464403636754, 4234033.342727256007493 ], [ 585855.130782356951386, 4234113.328227555379272 ] ] } },
{ "type": "Feature", "properties": { "fid": 7 }, "geometry": { "type": "LineString", "coordinates": [ [ 585817.55145558109507, 4234118.239266505464911 ], [ 585855.130782356951386, 4234113.328227555379272 ], [ 585935.045057811541483, 4234100.93510462436825 ], [ 585943.164690077072009, 4234100.080406490713358 ] ] } },
{ "type": "Feature", "properties": { "fid": 8 }, "geometry": { "type": "LineString", "coordinates": [ [ 585951.711671409080736, 4234097.445087246596813 ], [ 586074.640948639018461, 4234079.899505030363798 ] ] } },
{ "type": "Feature", "properties": { "fid": 9 }, "geometry": { "type": "LineString", "coordinates": [ [ 586074.640948639018461, 4234079.899505030363798 ], [ 586205.539473857264966, 4234057.392734039574862 ] ] } },
{ "type": "Feature", "properties": { "fid": 10 }, "geometry": { "type": "LineString", "coordinates": [ [ 586276.995535937487148, 4233988.11495104059577 ], [ 586225.143849189858884, 4233997.089281439781189 ], [ 586194.730840616626665, 4234002.787268997170031 ], [ 586084.973355344496667, 4234021.733077613636851 ], [ 586065.937939392752014, 4234025.690535387024283 ] ] } },
{ "type": "Feature", "properties": { "fid": 11 }, "geometry": { "type": "LineString", "coordinates": [ [ 586312.180609087692574, 4234106.63309217710048 ], [ 586219.374636790598743, 4234127.28829706646502 ], [ 586086.259033193695359, 4234145.789254761300981 ], [ 585952.915471078944393, 4234169.091778016649187 ], [ 585829.784122880198993, 4234190.454572930932045 ], [ 585646.370763322571293, 4234219.880594826303422 ] ] } },
{ "type": "Feature", "properties": { "fid": 12 }, "geometry": { "type": "LineString", "coordinates": [ [ 585817.55145558109507, 4234118.239266505464911 ], [ 585736.683866064297035, 4234130.84953928552568 ], [ 585718.307856200495735, 4234135.407929329201579 ], [ 585635.971936035319231, 4234156.632932969368994 ] ] } },
{ "type": "Feature", "properties": { "fid": 13 }, "geometry": { "type": "LineString", "coordinates": [ [ 585666.883518519694917, 4234284.125404506921768 ], [ 585710.473123313044198, 4234279.282115085050464 ], [ 585797.367433521896601, 4234266.17674370855093 ], [ 585841.438004384981468, 4234259.253029010258615 ] ] } },
{ "type": "Feature", "properties": { "fid": 14 }, "geometry": { "type": "LineString", "coordinates": [ [ 585841.438004384981468, 4234259.253029010258615 ], [ 585866.313082933775149, 4234254.495869222097099 ], [ 585965.382959622191265, 4234237.390749097801745 ] ] } },
{ "type": "Feature", "properties": { "fid": 15 }, "geometry": { "type": "LineString", "coordinates": [ [ 585965.382959622191265, 4234237.390749097801745 ], [ 586006.483576779137366, 4234231.419019624590874 ], [ 586098.78989020420704, 4234216.855619311332703 ], [ 586137.537290536914952, 4234210.336465671658516 ], [ 586231.926185694755986, 4234194.650751835666597 ] ] } },
{ "type": "Feature", "properties": { "fid": 16 }, "geometry": { "type": "LineString", "coordinates": [ [ 586243.448634209227748, 4234256.490164868533611 ], [ 586328.989672374445945, 4234241.675397222861648 ] ] } },
{ "type": "Feature", "properties": { "fid": 17 }, "geometry": { "type": "LineString", "coordinates": [ [ 586243.448634209227748, 4234256.490164868533611 ], [ 586111.439505662303418, 4234281.42562288697809 ], [ 585978.705887449439615, 4234307.914502549916506 ], [ 585852.709137646364979, 4234325.791938500478864 ], [ 585716.099886023323052, 4234348.370214184746146 ], [ 585683.906256339279935, 4234353.498402984812856 ] ] } },
{ "type": "Feature", "properties": { "fid": 18 }, "geometry": { "type": "LineString", "coordinates": [ [ 585736.665378030622378, 4234344.971225151792169 ], [ 585742.595528152538463, 4234383.982636399567127 ], [ 585794.447214900283143, 4234410.763177907094359 ], [ 585874.78883942135144, 4234401.076599064283073 ], [ 586126.141315427026711, 4234355.920047698542476 ], [ 586341.454020150238648, 4234327.002760851755738 ], [ 586387.03792058781255, 4234320.165175786241889 ] ] } },
{ "type": "Feature", "properties": { "fid": 19 }, "geometry": { "type": "LineString", "coordinates": [ [ 585978.705887449439615, 4234307.914502549916506 ], [ 585980.201609182870016, 4234327.287660229019821 ], [ 585977.922414161032066, 4234340.962830360978842 ], [ 585975.358319761464372, 4234352.073906091973186 ], [ 585968.805634073563851, 4234361.760484934784472 ], [ 585964.817042785231024, 4234371.447063778527081 ], [ 585961.488434363389388, 4234385.500644633546472 ] ] } }
]
}
