{
"type": "FeatureCollection",
"name": "agaclar",
"crs": { "type": "name", "properties": { "name": "urn:ogc:def:crs:EPSG::5253" } },
"features": [
{ "type": "Feature", "properties": { "source_fid": 71, "height": 1.9, "source_type": "parsel" }, "geometry": { "type": "Point", "coordinates": [ 586171.011757436790504, 4234040.547413256019354 ] } },
{ "type": "Feature", "properties": { "source_fid": 308, "height": 1.8, "source_type": "parsel" }, "geometry": { "type": "Point", "coordinates": [ 586019.874657005304471, 4234236.403711047954857 ] } },
{ "type": "Feature", "properties": { "source_fid": 70, "height": 1.9, "source_type": "parsel" }, "geometry": { "type": "Point", "coordinates": [ 586148.969807598157786, 4234038.793655102141201 ] } },
{ "type": "Feature", "properties": { "source_fid": 271, "height": 1.6, "source_type": "parsel" }, "geometry": { "type": "Point", "coordinates": [ 586230.029623162583448, 4234138.622855860739946 ] } },
{ "type": "Feature", "properties": { "source_fid": 107, "height": 1.8, "source_type": "parsel" }, "geometry": { "type": "Point", "coordinates": [ 586195.42489079607185, 4234120.808219394646585 ] } },
{ "type": "Feature", "properties": { "source_fid": 270, "height": 1.6, "source_type": "parsel" }, "geometry": { "type": "Point", "coordinates": [ 586244.991597364423797, 4234164.405266774818301 ] } },
{ "type": "Feature", "properties": { "source_fid": 48, "height": 1.9, "source_type": "parsel" }, "geometry": { "type": "Point", "coordinates": [ 586149.347653082688339, 4233971.524654568172991 ] } },
{ "type": "Feature", "properties": { "source_fid": 246, "height": 1.6, "source_type": "parsel" }, "geometry": { "type": "Point", "coordinates": [ 586124.60055703157559, 4234147.156371478922665 ] } },
{ "type": "Feature", "properties": { "source_fid": 305, "height": 1.7, "source_type": "parsel" }, "geometry": { "type": "Point", "coordinates": [ 585999.299513316596858, 4234272.070120054297149 ] } },
{ "type": "Feature", "properties": { "source_fid": 61, "height": 1.7, "source_type": "parsel" }, "geometry": { "type": "Point", "coordinates": [ 586101.722149701206945, 4234046.247238504700363 ] } },
{ "type": "Feature", "properties": { "source_fid": 136, "height": 1.7, "source_type": "parsel" }, "geometry": { "type": "Point", "coordinates": [ 585691.795194628182799, 4234173.800471750088036 ] } },
{ "type": "Feature", "properties": { "source_fid": 23, "height": 1.9, "source_type": "parsel" }, "geometry": { "type": "Point", "coordinates": [ 585859.521770044579171, 4234066.819983935914934 ] } },
{ "type": "Feature", "properties": { "source_fid": 302, "height": 1.6, "source_type": "parsel" }, "geometry": { "type": "Point", "coordinates": [ 586061.448624471551739, 4234187.213898963294923 ] } },
{ "type": "Feature", "properties": { "source_fid": 58, "height": 1.8, "source_type": "parsel" }, "geometry": { "type": "Point", "coordinates": [ 586068.853229021420702, 4233989.859089792706072 ] } },
{ "type": "Feature", "properties": { "source_fid": 78, "height": 1.6, "source_type": "parsel" }, "geometry": { "type": "Point", "coordinates": [ 586045.239946815068834, 4234135.367987669073045 ] } },
{ "type": "Feature", "properties": { "source_fid": 113, "height": 1.6, "source_type": "parsel" }, "geometry": { "type": "Point", "coordinates": [ 586168.071971886907704, 4234069.404045579023659 ] } },
{ "type": "Feature", "properties": { "source_fid": 55, "height": 1.6, "source_type": "parsel" }, "geometry": { "type": "Point", "coordinates": [ 586067.593137423042208, 4233998.037001454271376 ] } },
{ "type": "Feature", "properties": { "source_fid": 147, "height": 1.7, "source_type": "parsel" }, "geometry": { "type": "Point", "coordinates": [ 585762.190071696881205, 4234132.791630705818534 ] } },
{ "type": "Feature", "properties": { "source_fid": 166, "height": 1.9, "source_type": "parsel" }, "geometry": { "type": "Point", "coordinates": [ 585728.821606765384786, 4234217.529759092256427 ] } },
{ "type": "Feature", "properties": { "source_fid": 88, "height": 1.6, "source_type": "parsel" }, "geometry": { "type": "Point", "coordinates": [ 585659.326996538089588, 4234100.030880929902196 ] } },
{ "type": "Feature", "properties": { "source_fid": 201, "height": 1.9, "source_type": "parsel" }, "geometry": { "type": "Point", "coordinates": [ 585947.045941427932121, 4234275.457022843882442 ] } },
{ "type": "Feature", "properties": { "source_fid": 367, "height": 1.8, "source_type": "parsel" }, "geometry": { "type": "Point", "coordinates": [ 586104.107771593146026, 4234294.453649908304214 ] } },
{ "type": "Feature", "properties": { "source_fid": 142, "height": 1.9, "source_type": "parsel" }, "geometry": { "type": "Point", "coordinates": [ 585682.356577081489377, 4234201.40106073115021 ] } },
{ "type": "Feature", "properties": { "source_fid": 257, "height": 1.8, "source_type": "parsel" }, "geometry": { "type": "Point", "coordinates": [ 586283.702075927401893, 4234121.797912270762026 ] } },
{ "type": "Feature", "properties": { "source_fid": 68, "height": 1.7, "source_type": "parsel" }, "geometry": { "type": "Point", "coordinates": [ 586119.387273831991479, 4234060.11007727496326 ] } },
{ "type": "Feature", "properties": { "source_fid": 269, "height": 1.9, "source_type": "parsel" }, "geometry": { "type": "Point", "coordinates": [ 586247.372729172348045, 4234179.865450526587665 ] } },
{ "type": "Feature", "properties": { "source_fid": 374, "height": 1.6, "source_type": "parsel" }, "geometry": { "type": "Point", "coordinates": [ 586024.835310001741163, 4234304.068927008658648 ] } },
{ "type": "Feature", "properties": { "source_fid": 267, "height": 1.9, "source_type": "parsel" }, "geometry": { "type": "Point", "coordinates": [ 586243.569329818477854, 4234211.665200357325375 ] } },
{ "type": "Feature", "properties": { "source_fid": 184, "height": 1.8, "source_type": "parsel" }, "geometry": { "type": "Point", "coordinates": [ 585757.050077698542736, 4234280.685872403904796 ] } },
{ "type": "Feature", "properties": { "source_fid": 220, "height": 1.7, "source_type": "parsel" }, "geometry": { "type": "Point", "coordinates": [ 586234.733320600935258, 4233982.464603912085295 ] } },
{ "type": "Feature", "properties": { "source_fid": 321, "height": 1.9, "source_type": "parsel" }, "geometry": { "type": "Point", "coordinates": [ 586294.366492711938918, 4234281.693770551122725 ] } },
{ "type": "Feature", "properties": { "source_fid": 97, "height": 1.6, "source_type": "parsel" }, "geometry": { "type": "Point", "coordinates": [ 585719.706940712756477, 4234103.033128039911389 ] } },
{ "type": "Feature", "properties": { "source_fid": 38, "height": 1.8, "source_type": "parsel" }, "geometry": { "type": "Point", "coordinates": [ 586044.690961247426458, 4234016.689762067981064 ] } },
{ "type": "Feature", "properties": { "source_fid": 74, "height": 1.8, "source_type": "parsel" }, "geometry": { "type": "Point", "coordinates": [ 586030.598590161884204, 4234107.24976693559438 ] } }
]
}
