{"type":"FeatureCollection","features":[{"type":"Feature","geometry":{"type":"Point","coordinates":[585839.4851193336,4234226.622060006]},"properties":{"type":"bin"}},{"type":"Feature","geometry":{"type":"Point","coordinates":[585819.4588076861,4234103.820262588]},"properties":{"type":"bin"}},{"type":"Feature","geometry":{"type":"Point","coordinates":[585807.1778418478,4234079.706227505]},"properties":{"type":"bin"}},{"type":"Feature","geometry":{"type":"Point","coordinates":[585950.7343123172,4234073.014603996]},"properties":{"type":"bin"}},{"type":"Feature","geometry":{"type":"Point","coordinates":[585936.2972583422,4234005.177647518]},"properties":{"type":"bin"}},{"type":"Feature","geometry":{"type":"Point","coordinates":[586062.2352578973,4233978.930155787]},"properties":{"type":"bin"}},{"type":"Feature","geometry":{"type":"Point","coordinates":[586064.5468254158,4234037.771935787]},"properties":{"type":"bin"}},{"type":"Feature","geometry":{"type":"Point","coordinates":[586087.1845509291,4234123.524107083]},"properties":{"type":"bin"}},{"type":"Feature","geometry":{"type":"Point","coordinates":[586108.4037446099,4234288.814017142]},"properties":{"type":"bin"}},{"type":"Feature","geometry":{"type":"Point","coordinates":[586186.9689167769,4233980.007651039]},"properties":{"type":"bin"}},{"type":"Feature","geometry":{"type":"Point","coordinates":[586203.1590940339,4234023.361214304]},"properties":{"type":"bin"}},{"type":"Feature","geometry":{"type":"Point","coordinates":[586202.3653692123,4234065.703257511]},"properties":{"type":"bin"}},{"type":"Feature","geometry":{"type":"Point","coordinates":[586207.7262633019,4234085.819933142]},"properties":{"type":"bin"}},{"type":"Feature","geometry":{"type":"Point","coordinates":[586227.4992966023,4234148.189485715]},"properties":{"type":"bin"}},{"type":"Feature","geometry":{"type":"Point","coordinates":[586223.0138644518,4234170.843713071]},"properties":{"type":"bin"}},{"type":"Feature","geometry":{"type":"Point","coordinates":[586236.3019702397,4234235.183831214]},"properties":{"type":"bin"}},{"type":"Feature","geometry":{"type":"Point","coordinates":[585712.6820566216,4234070.321946052]},"properties":{"type":"bin"}},{"type":"Feature","geometry":{"type":"Point","coordinates":[585792.2829444867,4234057.462902782]},"properties":{"type":"bin"}},{"type":"Feature","geometry":{"type":"Point","coordinates":[585848.6041868625,4234052.29599446]},"properties":{"type":"bin"}},{"type":"Feature","geometry":{"type":"Point","coordinates":[585835.3768140794,4234110.866367801]},"properties":{"type":"bin"}},{"type":"Feature","geometry":{"type":"Point","coordinates":[585874.5124561125,4234106.10035208]},"properties":{"type":"bin"}},{"type":"Feature","geometry":{"type":"Point","coordinates":[585977.6002733802,4234097.3644516645]},"properties":{"type":"bin"}},{"type":"Feature","geometry":{"type":"Point","coordinates":[586024.6115039893,4234082.209579447]},"properties":{"type":"bin"}},{"type":"Feature","geometry":{"type":"Point","coordinates":[586094.9625074343,4234071.963176496]},"properties":{"type":"bin"}},{"type":"Feature","geometry":{"type":"Point","coordinates":[586183.6620576167,4234057.583925774]},"properties":{"type":"bin"}},{"type":"Feature","geometry":{"type":"Point","coordinates":[586174.3168844474,4234010.5327630695]},"properties":{"type":"bin"}},{"type":"Feature","geometry":{"type":"Point","coordinates":[586076.9294170704,4234026.899914129]},"properties":{"type":"bin"}},{"type":"Feature","geometry":{"type":"Point","coordinates":[586243.1749399464,4234126.129029207]},"properties":{"type":"bin"}},{"type":"Feature","geometry":{"type":"Point","coordinates":[586197.5925778961,4234133.516620096]},"properties":{"type":"bin"}},{"type":"Feature","geometry":{"type":"Point","coordinates":[586019.362036299,4234154.2732125325]},"properties":{"type":"bin"}},{"type":"Feature","geometry":{"type":"Point","coordinates":[585806.9897712285,4234197.622474955]},"properties":{"type":"bin"}},{"type":"Feature","geometry":{"type":"Point","coordinates":[585736.9201118557,4234201.536107698]},"properties":{"type":"bin"}},{"type":"Feature","geometry":{"type":"Point","coordinates":[585692.5844907769,4234216.146111253]},"properties":{"type":"bin"}},{"type":"Feature","geometry":{"type":"Point","coordinates":[585777.1238505595,4234120.295042734]},"properties":{"type":"bin"}},{"type":"Feature","geometry":{"type":"Point","coordinates":[585725.5775883776,4234129.353853019]},"properties":{"type":"bin"}},{"type":"Feature","geometry":{"type":"Point","coordinates":[585687.9490157174,4234277.076559738]},"properties":{"type":"bin"}},{"type":"Feature","geometry":{"type":"Point","coordinates":[585853.1400953697,4234253.332097587]},"properties":{"type":"bin"}},{"type":"Feature","geometry":{"type":"Point","coordinates":[586051.1655184549,4234220.353281414]},"properties":{"type":"bin"}},{"type":"Feature","geometry":{"type":"Point","coordinates":[586159.9543931476,4234201.83477233]},"properties":{"type":"bin"}},{"type":"Feature","geometry":{"type":"Point","coordinates":[586198.6860632265,4234261.064110441]},"properties":{"type":"bin"}},{"type":"Feature","geometry":{"type":"Point","coordinates":[586176.96597713,4234265.443952273]},"properties":{"type":"bin"}},{"type":"Feature","geometry":{"type":"Point","coordinates":[586154.4647502755,4234268.750833516]},"properties":{"type":"bin"}},{"type":"Feature","geometry":{"type":"Point","coordinates":[586133.8338426556,4234281.605345699]},"properties":{"type":"bin"}},{"type":"Feature","geometry":{"type":"Point","coordinates":[586089.8801777783,4234290.304629468]},"properties":{"type":"bin"}},{"type":"Feature","geometry":{"type":"Point","coordinates":[586045.6154051697,4234297.781073849]},"properties":{"type":"bin"}},{"type":"Feature","geometry":{"type":"Point","coordinates":[585959.040709844,4234315.460765891]},"properties":{"type":"bin"}},{"type":"Feature","geometry":{"type":"Point","coordinates":[585935.9946521698,4234309.701475708]},"properties":{"type":"bin"}},{"type":"Feature","geometry":{"type":"Point","coordinates":[585872.7378710656,4234318.710257963]},"properties":{"type":"bin"}},{"type":"Feature","geometry":{"type":"Point","coordinates":[585699.5175042845,4234347.980377387]},"properties":{"type":"bin"}},{"type":"Feature","geometry":{"type":"Point","coordinates":[585779.9797865895,4234399.090111695]},"properties":{"type":"bin"}},{"type":"Feature","geometry":{"type":"Point","coordinates":[585835.0615027086,4234401.44837099]},"properties":{"type":"bin"}},{"type":"Feature","geometry":{"type":"Point","coordinates":[585966.8574592877,4234389.387367494]},"properties":{"type":"bin"}},{"type":"Feature","geometry":{"type":"Point","coordinates":[585990.3393804776,4234383.714573302]},"properties":{"type":"bin"}},{"type":"Feature","geometry":{"type":"Point","coordinates":[586034.3594114275,4234367.677371446]},"properties":{"type":"bin"}},{"type":"Feature","geometry":{"type":"Point","coordinates":[586056.1582712505,4234364.965282803]},"properties":{"type":"bin"}},{"type":"Feature","geometry":{"type":"Point","coordinates":[586080.1180568845,4234359.881619447]},"properties":{"type":"bin"}},{"type":"Feature","geometry":{"type":"Point","coordinates":[586104.2978748205,4234363.222319218]},"properties":{"type":"bin"}},{"type":"Feature","geometry":{"type":"Point","coordinates":[586221.8521538025,4234346.202181419]},"properties":{"type":"bin"}},{"type":"Feature","geometry":{"type":"Point","coordinates":[586269.5351856335,4234340.804620063]},"properties":{"type":"bin"}},{"type":"Feature","geometry":{"type":"Point","coordinates":[586364.4961537317,4234326.765441363]},"properties":{"type":"bin"}},{"type":"Feature","geometry":{"type":"Point","coordinates":[585974.4065809632,4234332.733635374]},"properties":{"type":"bin"}},{"type":"Feature","geometry":{"type":"Point","coordinates":[585971.4850565665,4234367.897673711]},"properties":{"type":"bin"}}]}