{
"type": "FeatureCollection",
"name": "roi",
"crs": { "type": "name", "properties": { "name": "urn:ogc:def:crs:EPSG::5253" } },
"features": [
{ "type": "Feature", "properties": { }, "geometry": { "type": "Polygon", "coordinates": [ [ [ 585609.425971593474969, 4234052.351649324409664 ], [ 585624.064517475082539, 4234092.289421240799129 ], [ 585666.229894199408591, 4234207.647527371533215 ], [ 585678.004376756260172, 4234250.290247983299196 ], [ 585686.278337472002022, 4234296.751719694584608 ], [ 585683.414274147362448, 4234346.077254731208086 ], [ 585687.869483763468452, 4234359.761112837120891 ], [ 585730.512204375350848, 4234353.396527671255171 ], [ 585738.149706574506126, 4234392.22049718350172 ], [ 585789.702846418484114, 4234419.269984139129519 ], [ 585827.253898897557519, 4234421.179359688423574 ], [ 586359.035982634406537, 4234324.365466479212046 ], [ 586336.261597543489188, 4234300.570470795035362 ], [ 586297.124074247782119, 4234142.855782257393003 ], [ 586296.005596368806437, 4234059.193578375503421 ], [ 586267.046733863884583, 4233948.768025746569037 ], [ 586253.044646498863585, 4233917.899787691421807 ], [ 586247.316519849700853, 4233916.626870658248663 ], [ 586246.839175962260924, 4233909.944056235253811 ], [ 585769.495288516394794, 4234001.275853361934423 ], [ 585608.630398447508924, 4234047.41909581515938 ], [ 585609.425971593474969, 4234052.351649324409664 ] ] ] } }
]
}
